LANDSAT 9               
1 49260U 21088A   24215.79748097  .00000918  00000+0  21378-3 0  9996
2 49260  98.2296 284.8137 0001389  89.5634 270.5724 14.57105971151473
